{
"type": "FeatureCollection",
"name": "osm_sample",
"crs": { "type": "name", "properties": { "name": "urn:ogc:def:crs:OGC:1.3:CRS84" } },
"xy_coordinate_resolution": 1e-07,
"features": [
{ "type": "Feature", "properties": { "highway": "residential", "surface": "asphalt", "name": "Lindenstraße", "lanes": null, "footway": null, "width": null, "leisure": null, "landuse": null, "meadow": null, "natural": null, "water": null, "wetland": null, "barrier": null, "diameter_crown": null, "leaf_type": null, "denotation": null, "amenity": null, "building": null, "building:levels": null, "garden:type": null }, "geometry": { "type": "LineString", "coordinates": [ [ 11.5853639, 48.1579454 ], [ 11.5891251, 48.1578607 ] ] } },
{ "type": "Feature", "properties": { "highway": "residential", "surface": "asphalt", "name": "Parkweg", "lanes": null, "footway": null, "width": null, "leisure": null, "landuse": null, "meadow": null, "natural": null, "water": null, "wetland": null, "barrier": null, "diameter_crown": null, "leaf_type": null, "denotation": null, "amenity": null, "building": null, "building:levels": null, "garden:type": null }, "geometry": { "type": "LineString", "coordinates": [ [ 11.5857274, 48.1576853 ], [ 11.5858358, 48.1598423 ] ] } },
{ "type": "Feature", "properties": { "highway": "tertiary", "surface": "asphalt", "name": "Am Anger", "lanes": "2", "footway": null, "width": null, "leisure": null, "landuse": null, "meadow": null, "natural": null, "water": null, "wetland": null, "barrier": null, "diameter_crown": null, "leaf_type": null, "denotation": null, "amenity": null, "building": null, "building:levels": null, "garden:type": null }, "geometry": { "type": "LineString", "coordinates": [ [ 11.585447, 48.1595991 ], [ 11.5892084, 48.1595144 ] ] } },
{ "type": "Feature", "properties": { "highway": "residential", "surface": "asphalt", "name": "Uferstraße", "lanes": null, "footway": null, "width": null, "leisure": null, "landuse": null, "meadow": null, "natural": null, "water": null, "wetland": null, "barrier": null, "diameter_crown": null, "leaf_type": null, "denotation": null, "amenity": null, "building": null, "building:levels": null, "garden:type": null }, "geometry": { "type": "LineString", "coordinates": [ [ 11.588602, 48.1576205 ], [ 11.5887106, 48.1597776 ] ] } },
{ "type": "Feature", "properties": { "highway": "footway", "surface": "paving_stones", "name": null, "lanes": null, "footway": "sidewalk", "width": "2.5", "leisure": null, "landuse": null, "meadow": null, "natural": null, "water": null, "wetland": null, "barrier": null, "diameter_crown": null, "leaf_type": null, "denotation": null, "amenity": null, "building": null, "building:levels": null, "garden:type": null }, "geometry": { "type": "LineString", "coordinates": [ [ 11.5853677, 48.1580218 ], [ 11.589129, 48.1579371 ] ] } },
{ "type": "Feature", "properties": { "highway": "footway", "surface": "paving_stones", "name": null, "lanes": null, "footway": "sidewalk", "width": "2.5", "leisure": null, "landuse": null, "meadow": null, "natural": null, "water": null, "wetland": null, "barrier": null, "diameter_crown": null, "leaf_type": null, "denotation": null, "amenity": null, "building": null, "building:levels": null, "garden:type": null }, "geometry": { "type": "LineString", "coordinates": [ [ 11.5858415, 48.1576827 ], [ 11.58595, 48.1598398 ] ] } },
{ "type": "Feature", "properties": { "highway": "footway", "surface": "paving_stones", "name": null, "lanes": null, "footway": "sidewalk", "width": "2.5", "leisure": null, "landuse": null, "meadow": null, "natural": null, "water": null, "wetland": null, "barrier": null, "diameter_crown": null, "leaf_type": null, "denotation": null, "amenity": null, "building": null, "building:levels": null, "garden:type": null }, "geometry": { "type": "LineString", "coordinates": [ [ 11.5854432, 48.1595227 ], [ 11.5892045, 48.159438 ] ] } },
{ "type": "Feature", "properties": { "highway": "footway", "surface": "paving_stones", "name": null, "lanes": null, "footway": "sidewalk", "width": "2.5", "leisure": null, "landuse": null, "meadow": null, "natural": null, "water": null, "wetland": null, "barrier": null, "diameter_crown": null, "leaf_type": null, "denotation": null, "amenity": null, "building": null, "building:levels": null, "garden:type": null }, "geometry": { "type": "LineString", "coordinates": [ [ 11.5884878, 48.1576231 ], [ 11.5885964, 48.1597802 ] ] } },
{ "type": "Feature", "properties": { "highway": null, "surface": null, "name": "Anger-Park", "lanes": null, "footway": null, "width": null, "leisure": "park", "landuse": null, "meadow": null, "natural": null, "water": null, "wetland": null, "barrier": null, "diameter_crown": null, "leaf_type": null, "denotation": null, "amenity": null, "building": null, "building:levels": null, "garden:type": null }, "geometry": { "type": "Polygon", "coordinates": [ [ [ 11.5859066, 48.1580412 ], [ 11.5873843, 48.1580079 ], [ 11.5874566, 48.1594459 ], [ 11.585979, 48.1594792 ], [ 11.5859066, 48.1580412 ] ] ] } },
{ "type": "Feature", "properties": { "highway": null, "surface": null, "name": null, "lanes": null, "footway": null, "width": null, "leisure": null, "landuse": "grass", "meadow": null, "natural": null, "water": null, "wetland": null, "barrier": null, "diameter_crown": null, "leaf_type": null, "denotation": null, "amenity": null, "building": null, "building:levels": null, "garden:type": null }, "geometry": { "type": "Polygon", "coordinates": [ [ [ 11.5859205, 48.1580498 ], [ 11.5873713, 48.1580172 ], [ 11.5874427, 48.1594372 ], [ 11.5859919, 48.1594699 ], [ 11.5859205, 48.1580498 ] ] ] } },
{ "type": "Feature", "properties": { "highway": null, "surface": null, "name": null, "lanes": null, "footway": null, "width": null, "leisure": null, "landuse": "meadow", "meadow": "wildflower", "natural": null, "water": null, "wetland": null, "barrier": null, "diameter_crown": null, "leaf_type": null, "denotation": null, "amenity": null, "building": null, "building:levels": null, "garden:type": null }, "geometry": { "type": "Polygon", "coordinates": [ [ [ 11.5865107, 48.1592087 ], [ 11.5864951, 48.1592583 ], [ 11.5864608, 48.1593008 ], [ 11.5864122, 48.1593295 ], [ 11.5863621, 48.1593474 ], [ 11.5863166, 48.1593665 ], [ 11.5862689, 48.159392 ], [ 11.5862118, 48.1594122 ], [ 11.586152, 48.1594102 ], [ 11.5861037, 48.1593822 ], [ 11.5860723, 48.1593402 ], [ 11.5860511, 48.1592969 ], [ 11.5860343, 48.1592542 ], [ 11.5860259, 48.1592093 ], [ 11.5860316, 48.1591633 ], [ 11.5860482, 48.1591188 ], [ 11.5860685, 48.1590744 ], [ 11.5860942, 48.1590275 ], [ 11.5861343, 48.1589849 ], [ 11.5861904, 48.1589617 ], [ 11.5862506, 48.1589652 ], [ 11.5863024, 48.1589848 ], [ 11.586347, 48.1590036 ], [ 11.5863932, 48.1590169 ], [ 11.5864419, 48.1590344 ], [ 11.5864822, 48.1590659 ], [ 11.5865052, 48.1591097 ], [ 11.5865131, 48.1591586 ], [ 11.5865107, 48.1592087 ] ] ] } },
{ "type": "Feature", "properties": { "highway": null, "surface": null, "name": null, "lanes": null, "footway": null, "width": null, "leisure": null, "landuse": null, "meadow": null, "natural": "water", "water": "pond", "wetland": null, "barrier": null, "diameter_crown": null, "leaf_type": null, "denotation": null, "amenity": null, "building": null, "building:levels": null, "garden:type": null }, "geometry": { "type": "Polygon", "coordinates": [ [ [ 11.5871568, 48.1584872 ], [ 11.5871245, 48.1585065 ], [ 11.5870792, 48.1585189 ], [ 11.5870381, 48.1585298 ], [ 11.587002, 48.1585443 ], [ 11.5869572, 48.158559 ], [ 11.5868962, 48.158565 ], [ 11.5868284, 48.158557 ], [ 11.5867677, 48.158539 ], [ 11.5867173, 48.1585179 ], [ 11.5866736, 48.1584965 ], [ 11.586638, 48.1584735 ], [ 11.5866171, 48.1584492 ], [ 11.5866099, 48.1584253 ], [ 11.5866069, 48.1584018 ], [ 11.5866047, 48.1583765 ], [ 11.5866155, 48.1583508 ], [ 11.5866537, 48.158332 ], [ 11.5867162, 48.1583266 ], [ 11.5867843, 48.1583325 ], [ 11.586845, 48.158341 ], [ 11.5869014, 48.1583468 ], [ 11.5869611, 48.1583531 ], [ 11.5870216, 48.1583656 ], [ 11.5870734, 48.1583854 ], [ 11.5871134, 48.1584092 ], [ 11.5871441, 48.1584349 ], [ 11.5871623, 48.1584618 ], [ 11.5871568, 48.1584872 ] ] ] } },
{ "type": "Feature", "properties": { "highway": null, "surface": null, "name": null, "lanes": null, "footway": null, "width": null, "leisure": null, "landuse": null, "meadow": null, "natural": "wetland", "water": null, "wetland": "reedbed", "barrier": null, "diameter_crown": null, "leaf_type": null, "denotation": null, "amenity": null, "building": null, "building:levels": null, "garden:type": null }, "geometry": { "type": "Polygon", "coordinates": [ [ [ 11.5866676, 48.1584841 ], [ 11.5866792, 48.1584997 ], [ 11.586689, 48.1585193 ], [ 11.5866885, 48.158539 ], [ 11.5866773, 48.1585537 ], [ 11.5866611, 48.1585629 ], [ 11.5866443, 48.1585692 ], [ 11.5866268, 48.1585725 ], [ 11.5866083, 48.15857 ], [ 11.5865913, 48.1585619 ], [ 11.5865761, 48.1585532 ], [ 11.5865592, 48.1585471 ], [ 11.5865384, 48.1585401 ], [ 11.5865188, 48.1585265 ], [ 11.5865098, 48.1585064 ], [ 11.5865143, 48.1584862 ], [ 11.5865251, 48.1584707 ], [ 11.586534, 48.1584577 ], [ 11.5865398, 48.1584438 ], [ 11.5865476, 48.1584299 ], [ 11.5865604, 48.1584197 ], [ 11.5865768, 48.1584141 ], [ 11.5865947, 48.1584106 ], [ 11.5866147, 48.1584095 ], [ 11.5866354, 48.1584154 ], [ 11.5866514, 48.1584309 ], [ 11.5866588, 48.1584513 ], [ 11.5866616, 48.1584695 ], [ 11.5866676, 48.1584841 ] ] ] } },
{ "type": "Feature", "properties": { "highway": null, "surface": null, "name": null, "lanes": null, "footway": null, "width": null, "leisure": null, "landuse": null, "meadow": null, "natural": "scrub", "water": null, "wetland": null, "barrier": null, "diameter_crown": null, "leaf_type": null, "denotation": null, "amenity": null, "building": null, "building:levels": null, "garden:type": null }, "geometry": { "type": "Polygon", "coordinates": [ [ [ 11.5873316, 48.158225 ], [ 11.5873215, 48.1582411 ], [ 11.5873161, 48.1582573 ], [ 11.5873109, 48.1582757 ], [ 11.5872958, 48.1582937 ], [ 11.5872676, 48.158306 ], [ 11.5872325, 48.1583106 ], [ 11.5871977, 48.15831 ], [ 11.587165, 48.158307 ], [ 11.5871343, 48.1583011 ], [ 11.5871082, 48.1582908 ], [ 11.5870886, 48.1582774 ], [ 11.5870717, 48.1582635 ], [ 11.5870531, 48.158249 ], [ 11.5870361, 48.1582317 ], [ 11.5870315, 48.1582116 ], [ 11.5870463, 48.1581931 ], [ 11.5870748, 48.15818 ], [ 11.5871052, 48.1581713 ], [ 11.587132, 48.1581632 ], [ 11.5871588, 48.1581544 ], [ 11.5871896, 48.1581483 ], [ 11.5872228, 48.1581478 ], [ 11.5872552, 48.1581524 ], [ 11.5872861, 48.1581602 ], [ 11.5873146, 48.1581714 ], [ 11.5873345, 48.1581873 ], [ 11.5873394, 48.1582065 ], [ 11.5873316, 48.158225 ] ] ] } },
{ "type": "Feature", "properties": { "highway": null, "surface": null, "name": null, "lanes": null, "footway": null, "width": null, "leisure": "playground", "landuse": null, "meadow": null, "natural": null, "water": null, "wetland": null, "barrier": null, "diameter_crown": null, "leaf_type": null, "denotation": null, "amenity": null, "building": null, "building:levels": null, "garden:type": null }, "geometry": { "type": "Polygon", "coordinates": [ [ [ 11.5860455, 48.158128 ], [ 11.5863947, 48.1581201 ], [ 11.5864065, 48.1583538 ], [ 11.5860572, 48.1583617 ], [ 11.5860455, 48.158128 ] ] ] } },
{ "type": "Feature", "properties": { "highway": null, "surface": null, "name": null, "lanes": null, "footway": null, "width": null, "leisure": null, "landuse": "flowerbed", "meadow": null, "natural": null, "water": null, "wetland": null, "barrier": null, "diameter_crown": null, "leaf_type": null, "denotation": null, "amenity": null, "building": null, "building:levels": null, "garden:type": null }, "geometry": { "type": "Polygon", "coordinates": [ [ [ 11.5872906, 48.1590939 ], [ 11.5872948, 48.159106 ], [ 11.5872868, 48.1591191 ], [ 11.5872696, 48.1591314 ], [ 11.5872472, 48.1591424 ], [ 11.5872205, 48.159152 ], [ 11.5871897, 48.1591589 ], [ 11.5871573, 48.1591624 ], [ 11.5871262, 48.1591633 ], [ 11.5870957, 48.1591636 ], [ 11.587064, 48.1591632 ], [ 11.587033, 48.1591601 ], [ 11.5870095, 48.1591523 ], [ 11.5869989, 48.1591407 ], [ 11.5869993, 48.159128 ], [ 11.5870047, 48.1591156 ], [ 11.5870123, 48.1591037 ], [ 11.5870245, 48.1590917 ], [ 11.5870438, 48.1590806 ], [ 11.587069, 48.159071 ], [ 11.5870978, 48.1590628 ], [ 11.5871295, 48.1590561 ], [ 11.5871639, 48.1590521 ], [ 11.5871971, 48.159053 ], [ 11.5872239, 48.1590588 ], [ 11.5872433, 48.1590671 ], [ 11.5872599, 48.1590754 ], [ 11.5872767, 48.1590838 ], [ 11.5872906, 48.1590939 ] ] ] } },
{ "type": "Feature", "properties": { "highway": "footway", "surface": "compacted", "name": null, "lanes": null, "footway": null, "width": "3", "leisure": null, "landuse": null, "meadow": null, "natural": null, "water": null, "wetland": null, "barrier": null, "diameter_crown": null, "leaf_type": null, "denotation": null, "amenity": null, "building": null, "building:levels": null, "garden:type": null }, "geometry": { "type": "LineString", "coordinates": [ [ 11.5859446, 48.1587961 ], [ 11.5859694, 48.1587987 ], [ 11.5860005, 48.1588026 ], [ 11.586037, 48.1588075 ], [ 11.5860779, 48.1588131 ], [ 11.5861225, 48.158819 ], [ 11.5861696, 48.1588248 ], [ 11.5862185, 48.1588302 ], [ 11.5862683, 48.1588348 ], [ 11.586318, 48.1588383 ], [ 11.5863668, 48.1588404 ], [ 11.5864137, 48.1588406 ], [ 11.5864578, 48.1588386 ], [ 11.5865003, 48.1588338 ], [ 11.5865429, 48.1588261 ], [ 11.5865857, 48.1588163 ], [ 11.5866284, 48.1588047 ], [ 11.5866711, 48.158792 ], [ 11.5867137, 48.1587788 ], [ 11.586756, 48.1587656 ], [ 11.5867981, 48.1587529 ], [ 11.5868399, 48.1587414 ], [ 11.5868814, 48.1587315 ], [ 11.5869223, 48.158724 ], [ 11.5869628, 48.1587192 ], [ 11.5870042, 48.1587173 ], [ 11.5870473, 48.1587176 ], [ 11.5870916, 48.1587197 ], [ 11.5871364, 48.1587233 ], [ 11.5871807, 48.158728 ], [ 11.5872241, 48.1587336 ], [ 11.5872657, 48.1587395 ], [ 11.5873048, 48.1587455 ], [ 11.5873408, 48.1587512 ], [ 11.5873728, 48.1587562 ], [ 11.5874002, 48.1587602 ], [ 11.5874223, 48.1587628 ] ] } },
{ "type": "Feature", "properties": { "highway": "footway", "surface": "compacted", "name": null, "lanes": null, "footway": null, "width": "2.5", "leisure": null, "landuse": null, "meadow": null, "natural": null, "water": null, "wetland": null, "barrier": null, "diameter_crown": null, "leaf_type": null, "denotation": null, "amenity": null, "building": null, "building:levels": null, "garden:type": null }, "geometry": { "type": "LineString", "coordinates": [ [ 11.5863365, 48.1580315 ], [ 11.5863412, 48.1580468 ], [ 11.5863473, 48.1580658 ], [ 11.5863545, 48.158088 ], [ 11.5863625, 48.1581129 ], [ 11.5863712, 48.15814 ], [ 11.5863804, 48.1581688 ], [ 11.5863898, 48.158199 ], [ 11.5863993, 48.15823 ], [ 11.5864086, 48.1582614 ], [ 11.5864175, 48.1582927 ], [ 11.5864258, 48.1583235 ], [ 11.5864334, 48.1583532 ], [ 11.58644, 48.1583826 ], [ 11.5864459, 48.1584126 ], [ 11.5864513, 48.1584431 ], [ 11.5864564, 48.158474 ], [ 11.5864612, 48.1585053 ], [ 11.5864661, 48.1585369 ], [ 11.5864712, 48.1585688 ], [ 11.5864767, 48.1586009 ], [ 11.5864827, 48.158633 ], [ 11.5864895, 48.1586652 ], [ 11.5864972, 48.1586974 ], [ 11.5865061, 48.1587295 ], [ 11.5865161, 48.1587618 ], [ 11.5865271, 48.1587946 ], [ 11.586539, 48.1588277 ], [ 11.5865516, 48.1588611 ], [ 11.5865647, 48.1588946 ], [ 11.5865783, 48.1589281 ], [ 11.5865921, 48.1589614 ], [ 11.5866061, 48.1589945 ], [ 11.58662, 48.1590272 ], [ 11.5866338, 48.1590595 ], [ 11.5866473, 48.1590911 ], [ 11.5866603, 48.1591219 ], [ 11.5866735, 48.1591531 ], [ 11.5866875, 48.1591854 ], [ 11.5867019, 48.1592183 ], [ 11.5867166, 48.1592513 ], [ 11.5867313, 48.1592839 ], [ 11.5867457, 48.1593157 ], [ 11.5867596, 48.1593461 ], [ 11.5867726, 48.1593747 ], [ 11.5867847, 48.1594009 ], [ 11.5867954, 48.1594242 ], [ 11.5868045, 48.1594443 ], [ 11.5868118, 48.1594604 ] ] } },
{ "type": "Feature", "properties": { "highway": null, "surface": null, "name": null, "lanes": null, "footway": null, "width": null, "leisure": null, "landuse": null, "meadow": null, "natural": null, "water": null, "wetland": null, "barrier": "hedge", "diameter_crown": null, "leaf_type": null, "denotation": null, "amenity": null, "building": null, "building:levels": null, "garden:type": null }, "geometry": { "type": "LineString", "coordinates": [ [ 11.5873843, 48.1580079 ], [ 11.5874566, 48.1594459 ] ] } },
{ "type": "Feature", "properties": { "highway": null, "surface": null, "name": null, "lanes": null, "footway": null, "width": null, "leisure": null, "landuse": null, "meadow": null, "natural": "tree", "water": null, "wetland": null, "barrier": null, "diameter_crown": "12", "leaf_type": "broadleaved", "denotation": null, "amenity": null, "building": null, "building:levels": null, "garden:type": null }, "geometry": { "type": "Point", "coordinates": [ 11.5860412, 48.158578 ] } },
{ "type": "Feature", "properties": { "highway": null, "surface": null, "name": null, "lanes": null, "footway": null, "width": null, "leisure": null, "landuse": null, "meadow": null, "natural": "tree", "water": null, "wetland": null, "barrier": null, "diameter_crown": "11", "leaf_type": "broadleaved", "denotation": null, "amenity": null, "building": null, "building:levels": null, "garden:type": null }, "geometry": { "type": "Point", "coordinates": [ 11.5861088, 48.1593863 ] } },
{ "type": "Feature", "properties": { "highway": null, "surface": null, "name": null, "lanes": null, "footway": null, "width": null, "leisure": null, "landuse": null, "meadow": null, "natural": "tree", "water": null, "wetland": null, "barrier": null, "diameter_crown": "9", "leaf_type": "broadleaved", "denotation": null, "amenity": null, "building": null, "building:levels": null, "garden:type": null }, "geometry": { "type": "Point", "coordinates": [ 11.5863783, 48.1593982 ] } },
{ "type": "Feature", "properties": { "highway": null, "surface": null, "name": null, "lanes": null, "footway": null, "width": null, "leisure": null, "landuse": null, "meadow": null, "natural": "tree", "water": null, "wetland": null, "barrier": null, "diameter_crown": "13", "leaf_type": "broadleaved", "denotation": null, "amenity": null, "building": null, "building:levels": null, "garden:type": null }, "geometry": { "type": "Point", "coordinates": [ 11.5873178, 48.1593591 ] } },
{ "type": "Feature", "properties": { "highway": null, "surface": null, "name": null, "lanes": null, "footway": null, "width": null, "leisure": null, "landuse": null, "meadow": null, "natural": "tree", "water": null, "wetland": null, "barrier": null, "diameter_crown": "10", "leaf_type": "broadleaved", "denotation": null, "amenity": null, "building": null, "building:levels": null, "garden:type": null }, "geometry": { "type": "Point", "coordinates": [ 11.5873489, 48.1589085 ] } },
{ "type": "Feature", "properties": { "highway": null, "surface": null, "name": null, "lanes": null, "footway": null, "width": null, "leisure": null, "landuse": null, "meadow": null, "natural": "tree", "water": null, "wetland": null, "barrier": null, "diameter_crown": "8", "leaf_type": "broadleaved", "denotation": null, "amenity": null, "building": null, "building:levels": null, "garden:type": null }, "geometry": { "type": "Point", "coordinates": [ 11.5860342, 48.1589741 ] } },
{ "type": "Feature", "properties": { "highway": null, "surface": null, "name": null, "lanes": null, "footway": null, "width": null, "leisure": null, "landuse": null, "meadow": null, "natural": "tree", "water": null, "wetland": null, "barrier": null, "diameter_crown": "12", "leaf_type": "broadleaved", "denotation": null, "amenity": null, "building": null, "building:levels": null, "garden:type": null }, "geometry": { "type": "Point", "coordinates": [ 11.5867759, 48.1592813 ] } },
{ "type": "Feature", "properties": { "highway": null, "surface": null, "name": null, "lanes": null, "footway": null, "width": null, "leisure": null, "landuse": null, "meadow": null, "natural": "tree", "water": null, "wetland": null, "barrier": null, "diameter_crown": "9", "leaf_type": "broadleaved", "denotation": null, "amenity": null, "building": null, "building:levels": null, "garden:type": null }, "geometry": { "type": "Point", "coordinates": [ 11.5870908, 48.1585904 ] } },
{ "type": "Feature", "properties": { "highway": null, "surface": null, "name": null, "lanes": null, "footway": null, "width": null, "leisure": null, "landuse": null, "meadow": null, "natural": "tree", "water": null, "wetland": null, "barrier": null, "diameter_crown": "10", "leaf_type": "broadleaved", "denotation": null, "amenity": null, "building": null, "building:levels": null, "garden:type": null }, "geometry": { "type": "Point", "coordinates": [ 11.5862078, 48.1586822 ] } },
{ "type": "Feature", "properties": { "highway": null, "surface": null, "name": null, "lanes": null, "footway": null, "width": null, "leisure": null, "landuse": null, "meadow": null, "natural": "tree", "water": null, "wetland": null, "barrier": null, "diameter_crown": "11", "leaf_type": "broadleaved", "denotation": null, "amenity": null, "building": null, "building:levels": null, "garden:type": null }, "geometry": { "type": "Point", "coordinates": [ 11.5872771, 48.1585502 ] } },
{ "type": "Feature", "properties": { "highway": null, "surface": null, "name": null, "lanes": null, "footway": null, "width": null, "leisure": null, "landuse": null, "meadow": null, "natural": "tree", "water": null, "wetland": null, "barrier": null, "diameter_crown": "14", "leaf_type": "broadleaved", "denotation": null, "amenity": null, "building": null, "building:levels": null, "garden:type": null }, "geometry": { "type": "Point", "coordinates": [ 11.5868949, 48.1589727 ] } },
{ "type": "Feature", "properties": { "highway": null, "surface": null, "name": null, "lanes": null, "footway": null, "width": null, "leisure": null, "landuse": null, "meadow": null, "natural": "tree", "water": null, "wetland": null, "barrier": null, "diameter_crown": "8", "leaf_type": "broadleaved", "denotation": null, "amenity": null, "building": null, "building:levels": null, "garden:type": null }, "geometry": { "type": "Point", "coordinates": [ 11.5865596, 48.1581884 ] } },
{ "type": "Feature", "properties": { "highway": null, "surface": null, "name": null, "lanes": null, "footway": null, "width": null, "leisure": null, "landuse": null, "meadow": null, "natural": "tree", "water": null, "wetland": null, "barrier": null, "diameter_crown": "7", "leaf_type": null, "denotation": "avenue", "amenity": null, "building": null, "building:levels": null, "garden:type": null }, "geometry": { "type": "Point", "coordinates": [ 11.5885584, 48.1580894 ] } },
{ "type": "Feature", "properties": { "highway": null, "surface": null, "name": null, "lanes": null, "footway": null, "width": null, "leisure": null, "landuse": null, "meadow": null, "natural": "tree", "water": null, "wetland": null, "barrier": null, "diameter_crown": "7", "leaf_type": null, "denotation": "avenue", "amenity": null, "building": null, "building:levels": null, "garden:type": null }, "geometry": { "type": "Point", "coordinates": [ 11.5885656, 48.1582332 ] } },
{ "type": "Feature", "properties": { "highway": null, "surface": null, "name": null, "lanes": null, "footway": null, "width": null, "leisure": null, "landuse": null, "meadow": null, "natural": "tree", "water": null, "wetland": null, "barrier": null, "diameter_crown": "7", "leaf_type": null, "denotation": "avenue", "amenity": null, "building": null, "building:levels": null, "garden:type": null }, "geometry": { "type": "Point", "coordinates": [ 11.5885728, 48.158377 ] } },
{ "type": "Feature", "properties": { "highway": null, "surface": null, "name": null, "lanes": null, "footway": null, "width": null, "leisure": null, "landuse": null, "meadow": null, "natural": "tree", "water": null, "wetland": null, "barrier": null, "diameter_crown": "7", "leaf_type": null, "denotation": "avenue", "amenity": null, "building": null, "building:levels": null, "garden:type": null }, "geometry": { "type": "Point", "coordinates": [ 11.5885801, 48.1585208 ] } },
{ "type": "Feature", "properties": { "highway": null, "surface": null, "name": null, "lanes": null, "footway": null, "width": null, "leisure": null, "landuse": null, "meadow": null, "natural": "tree", "water": null, "wetland": null, "barrier": null, "diameter_crown": "7", "leaf_type": null, "denotation": "avenue", "amenity": null, "building": null, "building:levels": null, "garden:type": null }, "geometry": { "type": "Point", "coordinates": [ 11.5885873, 48.1586646 ] } },
{ "type": "Feature", "properties": { "highway": null, "surface": null, "name": null, "lanes": null, "footway": null, "width": null, "leisure": null, "landuse": null, "meadow": null, "natural": "tree", "water": null, "wetland": null, "barrier": null, "diameter_crown": "7", "leaf_type": null, "denotation": "avenue", "amenity": null, "building": null, "building:levels": null, "garden:type": null }, "geometry": { "type": "Point", "coordinates": [ 11.5885946, 48.1588084 ] } },
{ "type": "Feature", "properties": { "highway": null, "surface": null, "name": null, "lanes": null, "footway": null, "width": null, "leisure": null, "landuse": null, "meadow": null, "natural": "tree", "water": null, "wetland": null, "barrier": null, "diameter_crown": "7", "leaf_type": null, "denotation": "avenue", "amenity": null, "building": null, "building:levels": null, "garden:type": null }, "geometry": { "type": "Point", "coordinates": [ 11.5886018, 48.1589522 ] } },
{ "type": "Feature", "properties": { "highway": null, "surface": null, "name": null, "lanes": null, "footway": null, "width": null, "leisure": null, "landuse": null, "meadow": null, "natural": "tree", "water": null, "wetland": null, "barrier": null, "diameter_crown": "7", "leaf_type": null, "denotation": "avenue", "amenity": null, "building": null, "building:levels": null, "garden:type": null }, "geometry": { "type": "Point", "coordinates": [ 11.588609, 48.159096 ] } },
{ "type": "Feature", "properties": { "highway": null, "surface": null, "name": null, "lanes": null, "footway": null, "width": null, "leisure": null, "landuse": null, "meadow": null, "natural": "tree", "water": null, "wetland": null, "barrier": null, "diameter_crown": "7", "leaf_type": null, "denotation": "avenue", "amenity": null, "building": null, "building:levels": null, "garden:type": null }, "geometry": { "type": "Point", "coordinates": [ 11.5886163, 48.1592398 ] } },
{ "type": "Feature", "properties": { "highway": null, "surface": null, "name": null, "lanes": null, "footway": null, "width": null, "leisure": null, "landuse": null, "meadow": null, "natural": "tree", "water": null, "wetland": null, "barrier": null, "diameter_crown": "7", "leaf_type": null, "denotation": "avenue", "amenity": null, "building": null, "building:levels": null, "garden:type": null }, "geometry": { "type": "Point", "coordinates": [ 11.5886235, 48.1593836 ] } },
{ "type": "Feature", "properties": { "highway": null, "surface": null, "name": null, "lanes": null, "footway": null, "width": null, "leisure": null, "landuse": null, "meadow": null, "natural": null, "water": null, "wetland": null, "barrier": null, "diameter_crown": null, "leaf_type": null, "denotation": null, "amenity": "bench", "building": null, "building:levels": null, "garden:type": null }, "geometry": { "type": "Point", "coordinates": [ 11.58655, 48.1588005 ] } },
{ "type": "Feature", "properties": { "highway": null, "surface": null, "name": null, "lanes": null, "footway": null, "width": null, "leisure": null, "landuse": null, "meadow": null, "natural": null, "water": null, "wetland": null, "barrier": null, "diameter_crown": null, "leaf_type": null, "denotation": null, "amenity": "bench", "building": null, "building:levels": null, "garden:type": null }, "geometry": { "type": "Point", "coordinates": [ 11.5870184, 48.158754 ] } },
{ "type": "Feature", "properties": { "highway": null, "surface": null, "name": null, "lanes": null, "footway": null, "width": null, "leisure": null, "landuse": null, "meadow": null, "natural": null, "water": null, "wetland": null, "barrier": null, "diameter_crown": null, "leaf_type": null, "denotation": null, "amenity": "bench", "building": null, "building:levels": null, "garden:type": null }, "geometry": { "type": "Point", "coordinates": [ 11.5865716, 48.158962 ] } },
{ "type": "Feature", "properties": { "highway": null, "surface": null, "name": null, "lanes": null, "footway": null, "width": null, "leisure": null, "landuse": null, "meadow": null, "natural": null, "water": null, "wetland": null, "barrier": null, "diameter_crown": null, "leaf_type": null, "denotation": null, "amenity": "waste_basket", "building": null, "building:levels": null, "garden:type": null }, "geometry": { "type": "Point", "coordinates": [ 11.5867793, 48.1588133 ] } },
{ "type": "Feature", "properties": { "highway": null, "surface": null, "name": null, "lanes": null, "footway": null, "width": null, "leisure": null, "landuse": null, "meadow": null, "natural": null, "water": null, "wetland": null, "barrier": null, "diameter_crown": null, "leaf_type": null, "denotation": null, "amenity": "bicycle_parking", "building": null, "building:levels": null, "garden:type": null }, "geometry": { "type": "Point", "coordinates": [ 11.586462, 48.1583886 ] } },
{ "type": "Feature", "properties": { "highway": null, "surface": null, "name": null, "lanes": null, "footway": null, "width": null, "leisure": null, "landuse": "residential", "meadow": null, "natural": null, "water": null, "wetland": null, "barrier": null, "diameter_crown": null, "leaf_type": null, "denotation": null, "amenity": null, "building": null, "building:levels": null, "garden:type": null }, "geometry": { "type": "Polygon", "coordinates": [ [ [ 11.5874111, 48.1580073 ], [ 11.5884589, 48.1579837 ], [ 11.5885313, 48.1594217 ], [ 11.5874835, 48.1594453 ], [ 11.5874111, 48.1580073 ] ] ] } },
{ "type": "Feature", "properties": { "highway": null, "surface": null, "name": null, "lanes": null, "footway": null, "width": null, "leisure": null, "landuse": null, "meadow": null, "natural": null, "water": null, "wetland": null, "barrier": null, "diameter_crown": null, "leaf_type": null, "denotation": null, "amenity": null, "building": "apartments", "building:levels": "4", "garden:type": null }, "geometry": { "type": "Polygon", "coordinates": [ [ [ 11.587524, 48.1581127 ], [ 11.587927, 48.1581036 ], [ 11.5879424, 48.1584092 ], [ 11.5875394, 48.1584183 ], [ 11.587524, 48.1581127 ] ] ] } },
{ "type": "Feature", "properties": { "highway": null, "surface": null, "name": null, "lanes": null, "footway": null, "width": null, "leisure": null, "landuse": null, "meadow": null, "natural": null, "water": null, "wetland": null, "barrier": null, "diameter_crown": null, "leaf_type": null, "denotation": null, "amenity": null, "building": "apartments", "building:levels": "4", "garden:type": null }, "geometry": { "type": "Polygon", "coordinates": [ [ [ 11.5880345, 48.1581012 ], [ 11.5884106, 48.1580927 ], [ 11.5884278, 48.1584343 ], [ 11.5880517, 48.1584427 ], [ 11.5880345, 48.1581012 ] ] ] } },
{ "type": "Feature", "properties": { "highway": null, "surface": null, "name": null, "lanes": null, "footway": null, "width": null, "leisure": null, "landuse": null, "meadow": null, "natural": null, "water": null, "wetland": null, "barrier": null, "diameter_crown": null, "leaf_type": null, "denotation": null, "amenity": null, "building": "apartments", "building:levels": null, "garden:type": null }, "geometry": { "type": "Polygon", "coordinates": [ [ [ 11.5875674, 48.1589755 ], [ 11.588454, 48.1589556 ], [ 11.588473, 48.159333 ], [ 11.5881238, 48.1593409 ], [ 11.5881138, 48.1591432 ], [ 11.5875765, 48.1591553 ], [ 11.5875674, 48.1589755 ] ] ] } },
{ "type": "Feature", "properties": { "highway": null, "surface": null, "name": null, "lanes": null, "footway": null, "width": null, "leisure": "garden", "landuse": null, "meadow": null, "natural": null, "water": null, "wetland": null, "barrier": null, "diameter_crown": null, "leaf_type": null, "denotation": null, "amenity": null, "building": null, "building:levels": null, "garden:type": "residential" }, "geometry": { "type": "Polygon", "coordinates": [ [ [ 11.5875439, 48.1585082 ], [ 11.5879469, 48.1584991 ], [ 11.5879659, 48.1588766 ], [ 11.5875629, 48.1588857 ], [ 11.5875439, 48.1585082 ] ] ] } },
{ "type": "Feature", "properties": { "highway": null, "surface": null, "name": null, "lanes": null, "footway": null, "width": null, "leisure": null, "landuse": null, "meadow": null, "natural": null, "water": null, "wetland": null, "barrier": null, "diameter_crown": null, "leaf_type": null, "denotation": null, "amenity": "parking", "building": null, "building:levels": null, "garden:type": null }, "geometry": { "type": "Polygon", "coordinates": [ [ [ 11.5880562, 48.1585326 ], [ 11.5884323, 48.1585241 ], [ 11.5884495, 48.1588657 ], [ 11.5880734, 48.1588742 ], [ 11.5880562, 48.1585326 ] ] ] } },
{ "type": "Feature", "properties": { "highway": "service", "surface": null, "name": null, "lanes": null, "footway": null, "width": "4", "leisure": null, "landuse": null, "meadow": null, "natural": null, "water": null, "wetland": null, "barrier": null, "diameter_crown": null, "leaf_type": null, "denotation": null, "amenity": null, "building": null, "building:levels": null, "garden:type": null }, "geometry": { "type": "LineString", "coordinates": [ [ 11.5882614, 48.1588699 ], [ 11.5882642, 48.1589238 ], [ 11.5886672, 48.1589148 ] ] } }
]
}
